{
  "type": "FeatureCollection",
  "features": [
    {
      "type": "Feature",
      "properties": {
        "norad_id": 31307,
        "name": "GALAXY 17 (G-17)",
        "group": "intelsat",
        "lat": 2.2664471079121404,
        "lon": -165.29809862010137,
        "alt_km": 35767.42759813403,
        "timestamp": "2025-12-02T13:52:16.943093+00:00",
        "meta_object_name": "GALAXY 17 (G-17)",
        "meta_object_id": "2007-016B",
        "meta_epoch": "2025-12-02T06:31:51.714048",
        "meta_mean_motion": 1.00270397,
        "meta_eccentricity": 0.00061051,
        "meta_inclination": 2.4713,
        "meta_ra_of_asc_node": 82.4071,
        "meta_arg_of_pericenter": 155.6782,
        "meta_mean_anomaly": 206.2651,
        "meta_ephemeris_type": 0,
        "meta_classification_type": "U",
        "meta_norad_cat_id": 31307,
        "meta_element_set_no": 999,
        "meta_rev_at_epoch": 6783,
        "meta_bstar": 0,
        "meta_mean_motion_dot": -1.86e-06,
        "meta_mean_motion_ddot": 0,
        "tle_line1": "1 31307U 07016B   25336.27212632 -.00000186  00000+0  00000+0 0  9996",
        "tle_line2": "2 31307   2.4713  82.4071 0006105 155.6782 206.2651  1.00270397 67836"
      },
      "geometry": {
        "type": "Point",
        "coordinates": [
          -165.29809862010137,
          2.2664471079121404
        ]
      }
    },
    {
      "type": "Feature",
      "properties": {
        "norad_id": 31862,
        "name": "DIRECTV 10",
        "group": "intelsat",
        "lat": -0.015002486391674697,
        "lon": 176.9218730073027,
        "alt_km": 35787.29373946795,
        "timestamp": "2025-12-02T13:52:16.943104+00:00",
        "meta_object_name": "DIRECTV 10",
        "meta_object_id": "2007-032A",
        "meta_epoch": "2025-12-02T06:26:52.192032",
        "meta_mean_motion": 1.00267105,
        "meta_eccentricity": 4.39e-06,
        "meta_inclination": 0.0021,
        "meta_ra_of_asc_node": 329.0778,
        "meta_arg_of_pericenter": 261.3273,
        "meta_mean_anomaly": 194.8925,
        "meta_ephemeris_type": 0,
        "meta_classification_type": "U",
        "meta_norad_cat_id": 31862,
        "meta_element_set_no": 999,
        "meta_rev_at_epoch": 4361,
        "meta_bstar": 0,
        "meta_mean_motion_dot": -8.2e-07,
        "meta_mean_motion_ddot": 0,
        "tle_line1": "1 31862U 07032A   25336.26865963 -.00000082  00000+0  00000+0 0  9995",
        "tle_line2": "2 31862   0.0021 329.0778 0000043 261.3273 194.8925  1.00267105 43616"
      },
      "geometry": {
        "type": "Point",
        "coordinates": [
          176.9218730073027,
          -0.015002486391674697
        ]
      }
    },
    {
      "type": "Feature",
      "properties": {
        "norad_id": 32253,
        "name": "INTELSAT 11 (IS-11)",
        "group": "intelsat",
        "lat": 2.865322688970177,
        "lon": -169.8830190116032,
        "alt_km": 36107.81457162436,
        "timestamp": "2025-12-02T13:52:16.943115+00:00",
        "meta_object_name": "INTELSAT 11 (IS-11)",
        "meta_object_id": "2007-044B",
        "meta_epoch": "2025-12-02T06:30:59.297760",
        "meta_mean_motion": 0.99047483,
        "meta_eccentricity": 0.00092509,
        "meta_inclination": 3.0506,
        "meta_ra_of_asc_node": 81.0945,
        "meta_arg_of_pericenter": 160.3596,
        "meta_mean_anomaly": 199.4695,
        "meta_ephemeris_type": 0,
        "meta_classification_type": "U",
        "meta_norad_cat_id": 32253,
        "meta_element_set_no": 999,
        "meta_rev_at_epoch": 6649,
        "meta_bstar": 0,
        "meta_mean_motion_dot": -1.3e-07,
        "meta_mean_motion_ddot": 0,
        "tle_line1": "1 32253U 07044B   25336.27151965 -.00000013  00000+0  00000+0 0  9998",
        "tle_line2": "2 32253   3.0506  81.0945 0009250 160.3596 199.4695  0.99047483 66496"
      },
      "geometry": {
        "type": "Point",
        "coordinates": [
          -169.8830190116032,
          2.865322688970177
        ]
      }
    },
    {
      "type": "Feature",
      "properties": {
        "norad_id": 32388,
        "name": "HORIZONS-2",
        "group": "intelsat",
        "lat": 1.7352537341282328,
        "lon": -154.0903233914783,
        "alt_km": 35774.28192231857,
        "timestamp": "2025-12-02T13:52:16.943127+00:00",
        "meta_object_name": "HORIZONS-2",
        "meta_object_id": "2007-063B",
        "meta_epoch": "2025-12-02T06:35:06.402624",
        "meta_mean_motion": 1.00272496,
        "meta_eccentricity": 0.0004904,
        "meta_inclination": 2.092,
        "meta_ra_of_asc_node": 83.0773,
        "meta_arg_of_pericenter": 179.6599,
        "meta_mean_anomaly": 193.6329,
        "meta_ephemeris_type": 0,
        "meta_classification_type": "U",
        "meta_norad_cat_id": 32388,
        "meta_element_set_no": 999,
        "meta_rev_at_epoch": 6584,
        "meta_bstar": 0,
        "meta_mean_motion_dot": -2.33e-06,
        "meta_mean_motion_ddot": 0,
        "tle_line1": "1 32388U 07063B   25336.27437966 -.00000233  00000+0  00000+0 0  9990",
        "tle_line2": "2 32388   2.0920  83.0773 0004904 179.6599 193.6329  1.00272496 65847"
      },
      "geometry": {
        "type": "Point",
        "coordinates": [
          -154.0903233914783,
          1.7352537341282328
        ]
      }
    },
    {
      "type": "Feature",
      "properties": {
        "norad_id": 32729,
        "name": "DIRECTV 11",
        "group": "intelsat",
        "lat": -0.00643050217663459,
        "lon": -179.47030708386657,
        "alt_km": 35786.20206501939,
        "timestamp": "2025-12-02T13:52:16.943138+00:00",
        "meta_object_name": "DIRECTV 11",
        "meta_object_id": "2008-013A",
        "meta_epoch": "2025-12-02T06:27:52.095744",
        "meta_mean_motion": 1.00268446,
        "meta_eccentricity": 2.096e-05,
        "meta_inclination": 0.0091,
        "meta_ra_of_asc_node": 217.7805,
        "meta_arg_of_pericenter": 342.7598,
        "meta_mean_anomaly": 228.6143,
        "meta_ephemeris_type": 0,
        "meta_classification_type": "U",
        "meta_norad_cat_id": 32729,
        "meta_element_set_no": 999,
        "meta_rev_at_epoch": 4361,
        "meta_bstar": 0,
        "meta_mean_motion_dot": -1.04e-06,
        "meta_mean_motion_ddot": 0,
        "tle_line1": "1 32729U 08013A   25336.26935296 -.00000104  00000+0  00000+0 0  9990",
        "tle_line2": "2 32729   0.0091 217.7805 0000209 342.7598 228.6143  1.00268446 43615"
      },
      "geometry": {
        "type": "Point",
        "coordinates": [
          -179.47030708386657,
          -0.00643050217663459
        ]
      }
    },
    {
      "type": "Feature",
      "properties": {
        "norad_id": 32951,
        "name": "GALAXY 18 (G-18)",
        "group": "intelsat",
        "lat": -0.004291424729379037,
        "lon": 156.65768139132882,
        "alt_km": 35787.81174891374,
        "timestamp": "2025-12-02T13:52:16.943149+00:00",
        "meta_object_name": "GALAXY 18 (G-18)",
        "meta_object_id": "2008-024A",
        "meta_epoch": "2025-12-02T05:43:42.852288",
        "meta_mean_motion": 1.00272645,
        "meta_eccentricity": 0.00033997,
        "meta_inclination": 0.0211,
        "meta_ra_of_asc_node": 342.0453,
        "meta_arg_of_pericenter": 272.6422,
        "meta_mean_anomaly": 139.5595,
        "meta_ephemeris_type": 0,
        "meta_classification_type": "U",
        "meta_norad_cat_id": 32951,
        "meta_element_set_no": 999,
        "meta_rev_at_epoch": 4387,
        "meta_bstar": 0,
        "meta_mean_motion_dot": 0,
        "meta_mean_motion_ddot": 0,
        "tle_line1": "1 32951U 08024A   25336.23869042  .00000000  00000+0  00000+0 0  9995",
        "tle_line2": "2 32951   0.0211 342.0453 0003399 272.6422 139.5595  1.00272645 43872"
      },
      "geometry": {
        "type": "Point",
        "coordinates": [
          156.65768139132882,
          -0.004291424729379037
        ]
      }
    },
    {
      "type": "Feature",
      "properties": {
        "norad_id": 33153,
        "name": "INTELSAT 25 (IS-25)",
        "group": "intelsat",
        "lat": 0.528563947959728,
        "lon": -111.76565057387732,
        "alt_km": 35764.08580630816,
        "timestamp": "2025-12-02T13:52:16.943160+00:00",
        "meta_object_name": "INTELSAT 25 (IS-25)",
        "meta_object_id": "2008-034A",
        "meta_epoch": "2025-12-02T05:04:22.594368",
        "meta_mean_motion": 1.00271751,
        "meta_eccentricity": 0.00052726,
        "meta_inclination": 2.1982,
        "meta_ra_of_asc_node": 82.7673,
        "meta_arg_of_pericenter": 175.8921,
        "meta_mean_anomaly": 217.2623,
        "meta_ephemeris_type": 0,
        "meta_classification_type": "U",
        "meta_norad_cat_id": 33153,
        "meta_element_set_no": 999,
        "meta_rev_at_epoch": 6372,
        "meta_bstar": 0,
        "meta_mean_motion_dot": -2.03e-06,
        "meta_mean_motion_ddot": 0,
        "tle_line1": "1 33153U 08034A   25336.21137262 -.00000203  00000+0  00000+0 0  9997",
        "tle_line2": "2 33153   2.1982  82.7673 0005272 175.8921 217.2623  1.00271751 63726"
      },
      "geometry": {
        "type": "Point",
        "coordinates": [
          -111.76565057387732,
          0.528563947959728
        ]
      }
    }
  ]
}